NORAD_CAT_ID,OBJECT_NAME,OBJECT_TYPE,EPOCH,MEAN_MOTION,ECCENTRICITY,INCLINATION,RA_OF_ASC_NODE,ARG_OF_PERICENTER,MEAN_ANOMALY,BSTAR,MEAN_MOTION_DOT,MEAN_MOTION_DDOT,TLE_LINE0,TLE_LINE1,TLE_LINE2,SEMIMAJOR_AXIS,PERIOD,APOGEE,PERIGEE,DECAYED
54766.0,STARLINK-5471,PAYLOAD,2024-08-14 22:27:04,15.08877872,0.0001445,53.2165,90.8232,75.8606,284.2546,0.00095013,0.00014881,0.0,0 STARLINK-5471,1 54766U 22175J   24227.93546353  .00014881  00000-0  95013-3 0  9993,2 54766  53.2165  90.8232 0001445  75.8606 284.2546 15.08877872 93604,6917.765,95.435,540.629,538.63,0.0
54766.0,STARLINK-5471,PAYLOAD,2024-08-15 07:59:21,15.08891148,0.0001881,53.2181,89.0331,61.6943,298.4238,0.00089854,0.00014061,0.0,0 STARLINK-5471,1 54766U 22175J   24228.33289200  .00014061  00000-0  89854-3 0  9999,2 54766  53.2181  89.0331 0001881  61.6943 298.4238 15.08891148 93666,6917.724,95.434,540.89,538.288,0.0
54766.0,STARLINK-5471,PAYLOAD,2024-08-15 20:42:26,15.08858743,0.0001957,53.2146,86.6606,66.7686,293.3512,-2.6779e-06,-3.31e-06,0.0,0 STARLINK-5471,1 54766U 22175J   24228.86281062 -.00000331  00000-0 -26779-5 0  9991,2 54766  53.2146  86.6606 0001957  66.7686 293.3512 15.08858743 91581,6917.823,95.436,541.042,538.334,0.0
54766.0,STARLINK-5471,PAYLOAD,2024-08-15 22:17:49,15.08853519,0.0001522,53.2151,86.3629,61.7334,298.3811,-5.0319e-05,-1.089e-05,0.0,0 STARLINK-5471,1 54766U 22175J   24228.92905054 -.00001089  00000-0 -50319-4 0  9999,2 54766  53.2151  86.3629 0001522  61.7334 298.3811 15.08853519 93756,6917.839,95.437,540.757,538.651,0.0
54766.0,STARLINK-5471,PAYLOAD,2024-08-17 23:34:47,15.08860463,0.0001906,53.2166,77.1407,59.4643,300.6537,0.00087195,0.00013624,0.0,0 STARLINK-5471,1 54766U 22175J   24230.98249904  .00013624  00000-0  87195-3 0  9990,2 54766  53.2166  77.1407 0001906  59.4643 300.6537 15.08860463 91900,6917.818,95.436,541.001,538.364,0.0
54766.0,STARLINK-5471,PAYLOAD,2024-08-18 17:04:02,15.08842594,0.0001224,53.2172,73.8703,74.5547,285.558,0.00060262,9.316e-05,0.0,0 STARLINK-5471,1 54766U 22175J   24231.71113705  .00009316  00000-0  60262-3 0  9990,2 54766  53.2172  73.8703 0001224  74.5547 285.5580 15.08842594 92010,6917.872,95.437,540.584,538.891,0.0
54766.0,STARLINK-5471,PAYLOAD,2024-08-19 13:44:02,15.08841718,0.0001411,53.2171,70.0035,103.6712,256.4437,0.00017671,2.526e-05,0.0,0 STARLINK-5471,1 54766U 22175J   24232.57225606  .00002526  00000-0  17671-3 0  9991,2 54766  53.2171  70.0035 0001411 103.6712 256.4437 15.08841718 92141,6917.875,95.437,540.716,538.764,0.0
54766.0,STARLINK-5471,PAYLOAD,2024-08-20 13:34:50,15.0884106,0.0001413,53.2165,65.5443,95.2497,264.8656,0.00010474,1.379e-05,0.0,0 STARLINK-5471,1 54766U 22175J   24233.56585695  .00001379  00000-0  10474-3 0  9997,2 54766  53.2165  65.5443 0001413  95.2497 264.8656 15.08841060 94456,6917.877,95.437,540.72,538.765,0.0
54766.0,STARLINK-5471,PAYLOAD,2024-08-20 18:20:59,15.08842207,0.0001417,53.2169,64.6521,98.1186,261.9967,0.00011214,1.497e-05,0.0,0 STARLINK-5471,1 54766U 22175J   24233.76457619  .00001497  00000-0  11214-3 0  9997,2 54766  53.2169  64.6521 0001417  98.1186 261.9967 15.08842207 92329,6917.874,95.437,540.719,538.758,0.0
54766.0,STARLINK-5471,PAYLOAD,2024-08-20 23:07:08,15.08844353,0.0001448,53.2171,63.7596,100.2827,259.8328,0.00013351,1.838e-05,0.0,0 STARLINK-5471,1 54766U 22175J   24233.96329469  .00001838  00000-0  13351-3 0  9993,2 54766  53.2171  63.7596 0001448 100.2827 259.8328 15.08844353 94519,6917.867,95.437,540.734,538.73,0.0
54766.0,STARLINK-5471,PAYLOAD,2024-08-21 19:47:09,15.08836097,0.0001406,53.2174,59.8934,100.1682,259.9469,2.2191e-05,6.5e-07,0.0,0 STARLINK-5471,1 54766U 22175J   24234.82441921  .00000065  00000-0  22191-4 0  9991,2 54766  53.2174  59.8934 0001406 100.1682 259.9469 15.08836097 94643,6917.892,95.438,540.73,538.785,0.0
54766.0,STARLINK-5471,PAYLOAD,2024-08-21 21:22:33,15.08834511,0.0001346,53.2171,59.5963,95.245,264.8695,-8.6679e-06,-4.26e-06,0.0,0 STARLINK-5471,1 54766U 22175J   24234.89066024 -.00000426  00000-0 -86679-5 0  9990,2 54766  53.2171  59.5963 0001346  95.2450 264.8695 15.08834511 92495,6917.897,95.438,540.693,538.831,0.0
